[{"OBJECT_NAME":"ALISIO-1","OBJECT_ID":"2023-185M","EPOCH":"2026-03-09T23:05:14.691840","MEAN_MOTION":15.16299812,"ECCENTRICITY":0.00049564,"INCLINATION":97.5439,"RA_OF_ASC_NODE":142.8755,"ARG_OF_PERICENTER":306.4633,"MEAN_ANOMALY":53.6142,"EPHEMERIS_TYPE":0,"CLASSIFICATION_TYPE":"U","NORAD_CAT_ID":58562,"ELEMENT_SET_NO":999,"REV_AT_EPOCH":12351,"BSTAR":0.00026900054,"MEAN_MOTION_DOT":5.144e-5,"MEAN_MOTION_DDOT":0},{"OBJECT_NAME":"AC1-002","OBJECT_ID":"2025-276CH","EPOCH":"2026-03-09T16:54:04.093056","MEAN_MOTION":15.17945166,"ECCENTRICITY":0.00020889,"INCLINATION":97.4267,"RA_OF_ASC_NODE":143.9072,"ARG_OF_PERICENTER":20.2082,"MEAN_ANOMALY":339.9235,"EPHEMERIS_TYPE":0,"CLASSIFICATION_TYPE":"U","NORAD_CAT_ID":66745,"ELEMENT_SET_NO":999,"REV_AT_EPOCH":1531,"BSTAR":0.00016926708,"MEAN_MOTION_DOT":3.369e-5,"MEAN_MOTION_DDOT":0}]
